CCSDS_OMM_VERS = 2.0
CREATION_DATE  = 
ORIGINATOR     = 

OBJECT_NAME    = TIANQI-39
OBJECT_ID      = 2026-010C
CENTER_NAME    = EARTH
REF_FRAME      = TEME
TIME_SYSTEM    = UTC
MEAN_ELEMENT_THEORY = SGP/SGP4

EPOCH          = 2026-02-05T05:43:20.199072
MEAN_MOTION    = 14.13053035
ECCENTRICITY   = .0016508
INCLINATION    = 44.9844
RA_OF_ASC_NODE = 310.5029
ARG_OF_PERICENTER = 66.7904
MEAN_ANOMALY   = 293.4671

EPHEMERIS_TYPE = 0
CLASSIFICATION_TYPE = U
NORAD_CAT_ID   = 67478
ELEMENT_SET_NO = 999
REV_AT_EPOCH   = 289
BSTAR          = .31925E-3
MEAN_MOTION_DOT = .468E-5
MEAN_MOTION_DDOT = 0

CCSDS_OMM_VERS = 2.0
CREATION_DATE  = 
ORIGINATOR     = 

OBJECT_NAME    = TIANQI-40
OBJECT_ID      = 2026-010D
CENTER_NAME    = EARTH
REF_FRAME      = TEME
TIME_SYSTEM    = UTC
MEAN_ELEMENT_THEORY = SGP/SGP4

EPOCH          = 2026-02-05T10:43:35.342112
MEAN_MOTION    = 14.13801848
ECCENTRICITY   = .0012361
INCLINATION    = 44.9838
RA_OF_ASC_NODE = 309.5146
ARG_OF_PERICENTER = 68.7691
MEAN_ANOMALY   = 291.4466

EPHEMERIS_TYPE = 0
CLASSIFICATION_TYPE = U
NORAD_CAT_ID   = 67479
ELEMENT_SET_NO = 999
REV_AT_EPOCH   = 292
BSTAR          = .32904E-3
MEAN_MOTION_DOT = .494E-5
MEAN_MOTION_DDOT = 0

CCSDS_OMM_VERS = 2.0
CREATION_DATE  = 
ORIGINATOR     = 

OBJECT_NAME    = SZ-20 MODULE
OBJECT_ID      = 2025-082C
CENTER_NAME    = EARTH
REF_FRAME      = TEME
TIME_SYSTEM    = UTC
MEAN_ELEMENT_THEORY = SGP/SGP4

EPOCH          = 2026-02-05T04:12:40.085280
MEAN_MOTION    = 15.62340359
ECCENTRICITY   = .0006243
INCLINATION    = 41.4794
RA_OF_ASC_NODE = 45.5482
ARG_OF_PERICENTER = 103.0821
MEAN_ANOMALY   = 257.0716

EPHEMERIS_TYPE = 0
CLASSIFICATION_TYPE = U
NORAD_CAT_ID   = 67481
ELEMENT_SET_NO = 999
REV_AT_EPOCH   = 27253
BSTAR          = .34695E-3
MEAN_MOTION_DOT = .31393E-3
MEAN_MOTION_DDOT = 0

CCSDS_OMM_VERS = 2.0
CREATION_DATE  = 
ORIGINATOR     = 

OBJECT_NAME    = 2025-313BE
OBJECT_ID      = 2025-313BE
CENTER_NAME    = EARTH
REF_FRAME      = TEME
TIME_SYSTEM    = UTC
MEAN_ELEMENT_THEORY = SGP/SGP4

EPOCH          = 2026-02-02T15:19:28.929792
MEAN_MOTION    = 15.24449189
ECCENTRICITY   = .00090249
INCLINATION    = 97.4080
RA_OF_ASC_NODE = 110.5772
ARG_OF_PERICENTER = 110.7004
MEAN_ANOMALY   = 249.5202

EPHEMERIS_TYPE = 0
CLASSIFICATION_TYPE = U
NORAD_CAT_ID   = 67482
ELEMENT_SET_NO = 999
REV_AT_EPOCH   = 262
BSTAR          = .31468641E-2
MEAN_MOTION_DOT = .77996E-3
MEAN_MOTION_DDOT = 0

CCSDS_OMM_VERS = 2.0
CREATION_DATE  = 
ORIGINATOR     = 

OBJECT_NAME    = ION SCV-021
OBJECT_ID      = 2025-276DT
CENTER_NAME    = EARTH
REF_FRAME      = TEME
TIME_SYSTEM    = UTC
MEAN_ELEMENT_THEORY = SGP/SGP4

EPOCH          = 2026-02-03T04:28:21.905760
MEAN_MOTION    = 14.97380347
ECCENTRICITY   = .0011491
INCLINATION    = 97.5400
RA_OF_ASC_NODE = 109.5002
ARG_OF_PERICENTER = 211.3853
MEAN_ANOMALY   = 148.6685

EPHEMERIS_TYPE = 0
CLASSIFICATION_TYPE = U
NORAD_CAT_ID   = 67483
ELEMENT_SET_NO = 999
REV_AT_EPOCH   = 255
BSTAR          = .99302135E-4
MEAN_MOTION_DOT = .1099E-4
MEAN_MOTION_DDOT = 0

CCSDS_OMM_VERS = 2.0
CREATION_DATE  = 
ORIGINATOR     = 

OBJECT_NAME    = STARLINK-36551
OBJECT_ID      = 2026-012A
CENTER_NAME    = EARTH
REF_FRAME      = TEME
TIME_SYSTEM    = UTC
MEAN_ELEMENT_THEORY = SGP/SGP4

EPOCH          = 2026-02-05T12:00:01.999296
MEAN_MOTION    = 15.74572402
ECCENTRICITY   = .0001162
INCLINATION    = 42.9989
RA_OF_ASC_NODE = 138.8717
ARG_OF_PERICENTER = 284.8245
MEAN_ANOMALY   = 238.6890

EPHEMERIS_TYPE = 0
CLASSIFICATION_TYPE = U
NORAD_CAT_ID   = 67493
ELEMENT_SET_NO = 999
REV_AT_EPOCH   = 389
BSTAR          = -.14787E-1
MEAN_MOTION_DOT = -.1930091E-1
MEAN_MOTION_DDOT = 0

CCSDS_OMM_VERS = 2.0
CREATION_DATE  = 
ORIGINATOR     = 

OBJECT_NAME    = STARLINK-36396
OBJECT_ID      = 2026-012B
CENTER_NAME    = EARTH
REF_FRAME      = TEME
TIME_SYSTEM    = UTC
MEAN_ELEMENT_THEORY = SGP/SGP4

EPOCH          = 2026-02-05T12:00:01.999296
MEAN_MOTION    = 15.61803550
ECCENTRICITY   = .0001442
INCLINATION    = 42.9994
RA_OF_ASC_NODE = 139.1856
ARG_OF_PERICENTER = 284.6353
MEAN_ANOMALY   = 113.0461

EPHEMERIS_TYPE = 0
CLASSIFICATION_TYPE = U
NORAD_CAT_ID   = 67494
ELEMENT_SET_NO = 999
REV_AT_EPOCH   = 389
BSTAR          = -.30976E-1
MEAN_MOTION_DOT = -.2414471E-1
MEAN_MOTION_DDOT = 0

CCSDS_OMM_VERS = 2.0
CREATION_DATE  = 
ORIGINATOR     = 

OBJECT_NAME    = STARLINK-36550
OBJECT_ID      = 2026-012C
CENTER_NAME    = EARTH
REF_FRAME      = TEME
TIME_SYSTEM    = UTC
MEAN_ELEMENT_THEORY = SGP/SGP4

EPOCH          = 2026-02-05T12:00:01.999296
MEAN_MOTION    = 15.70492886
ECCENTRICITY   = .0001151
INCLINATION    = 42.9992
RA_OF_ASC_NODE = 138.9372
ARG_OF_PERICENTER = 288.2163
MEAN_ANOMALY   = 209.0640

EPHEMERIS_TYPE = 0
CLASSIFICATION_TYPE = U
NORAD_CAT_ID   = 67495
ELEMENT_SET_NO = 999
REV_AT_EPOCH   = 389
BSTAR          = -.17596E-1
MEAN_MOTION_DOT = -.1966466E-1
MEAN_MOTION_DDOT = 0

CCSDS_OMM_VERS = 2.0
CREATION_DATE  = 
ORIGINATOR     = 

OBJECT_NAME    = STARLINK-36534
OBJECT_ID      = 2026-012D
CENTER_NAME    = EARTH
REF_FRAME      = TEME
TIME_SYSTEM    = UTC
MEAN_ELEMENT_THEORY = SGP/SGP4

EPOCH          = 2026-02-05T12:00:01.999296
MEAN_MOTION    = 15.73683176
ECCENTRICITY   = .0001042
INCLINATION    = 42.9992
RA_OF_ASC_NODE = 138.8484
ARG_OF_PERICENTER = 281.0394
MEAN_ANOMALY   = 251.8156

EPHEMERIS_TYPE = 0
CLASSIFICATION_TYPE = U
NORAD_CAT_ID   = 67496
ELEMENT_SET_NO = 999
REV_AT_EPOCH   = 383
BSTAR          = -.15246E-1
MEAN_MOTION_DOT = -.1915951E-1
MEAN_MOTION_DDOT = 0

CCSDS_OMM_VERS = 2.0
CREATION_DATE  = 
ORIGINATOR     = 

OBJECT_NAME    = STARLINK-36555
OBJECT_ID      = 2026-012E
CENTER_NAME    = EARTH
REF_FRAME      = TEME
TIME_SYSTEM    = UTC
MEAN_ELEMENT_THEORY = SGP/SGP4

EPOCH          = 2026-02-05T12:00:01.999296
MEAN_MOTION    = 15.73594971
ECCENTRICITY   = .0001121
INCLINATION    = 42.9990
RA_OF_ASC_NODE = 138.8613
ARG_OF_PERICENTER = 286.1038
MEAN_ANOMALY   = 241.5546

EPHEMERIS_TYPE = 0
CLASSIFICATION_TYPE = U
NORAD_CAT_ID   = 67497
ELEMENT_SET_NO = 999
REV_AT_EPOCH   = 389
BSTAR          = -.153E-1
MEAN_MOTION_DOT = -.1915483E-1
MEAN_MOTION_DDOT = 0

CCSDS_OMM_VERS = 2.0
CREATION_DATE  = 
ORIGINATOR     = 

OBJECT_NAME    = STARLINK-36081
OBJECT_ID      = 2026-012F
CENTER_NAME    = EARTH
REF_FRAME      = TEME
TIME_SYSTEM    = UTC
MEAN_ELEMENT_THEORY = SGP/SGP4

EPOCH          = 2026-02-05T12:00:01.999296
MEAN_MOTION    = 15.69961821
ECCENTRICITY   = .0001234
INCLINATION    = 42.9992
RA_OF_ASC_NODE = 138.9140
ARG_OF_PERICENTER = 282.8454
MEAN_ANOMALY   = 223.4397

EPHEMERIS_TYPE = 0
CLASSIFICATION_TYPE = U
NORAD_CAT_ID   = 67498
ELEMENT_SET_NO = 999
REV_AT_EPOCH   = 383
BSTAR          = -.17447E-1
MEAN_MOTION_DOT = -.1913404E-1
MEAN_MOTION_DDOT = 0

CCSDS_OMM_VERS = 2.0
CREATION_DATE  = 
ORIGINATOR     = 

OBJECT_NAME    = STARLINK-36558
OBJECT_ID      = 2026-012G
CENTER_NAME    = EARTH
REF_FRAME      = TEME
TIME_SYSTEM    = UTC
MEAN_ELEMENT_THEORY = SGP/SGP4

EPOCH          = 2026-02-05T12:00:01.999296
MEAN_MOTION    = 15.69985346
ECCENTRICITY   = .0001153
INCLINATION    = 42.9993
RA_OF_ASC_NODE = 138.9073
ARG_OF_PERICENTER = 287.8601
MEAN_ANOMALY   = 221.1177

EPHEMERIS_TYPE = 0
CLASSIFICATION_TYPE = U
NORAD_CAT_ID   = 67499
ELEMENT_SET_NO = 999
REV_AT_EPOCH   = 389
BSTAR          = -.17898E-1
MEAN_MOTION_DOT = -.1958732E-1
MEAN_MOTION_DDOT = 0

