TIANQI-39               
1 67478U 26010C   26036.23842823  .00000468  00000+0  31925-3 0  9990
2 67478  44.9844 310.5029 0016508  66.7904 293.4671 14.13053035  2895
TIANQI-40               
1 67479U 26010D   26036.44693683  .00000494  00000+0  32904-3 0  9999
2 67479  44.9838 309.5146 0012361  68.7691 291.4466 14.13801848  2922
SZ-20 MODULE            
1 67481U 25082C   26036.17546395  .00031393  00000+0  34695-3 0  9998
2 67481  41.4794  45.5482 0006243 103.0821 257.0716 15.62340359272530
2025-313BE              
1 67482U 25313BE  26033.63852928  .00077996  00000+0  31469-2 0  9990
2 67482  97.4080 110.5772 0009024 110.7004 249.5202 15.24449189  2629
ION SCV-021             
1 67483U 25276DT  26034.18636465  .00001099  00000+0  99302-4 0  9999
2 67483  97.5400 109.5002 0011491 211.3853 148.6685 14.97380347  2557
STARLINK-36551          
1 67493U 26012A   26036.50002314 -.01930091  00000+0 -14787-1 0  9994
2 67493  42.9989 138.8717 0001162 284.8245 238.6890 15.74572402  3893
STARLINK-36396          
1 67494U 26012B   26036.50002314 -.02414471  00000+0 -30976-1 0  9993
2 67494  42.9994 139.1856 0001442 284.6353 113.0461 15.61803550  3894
STARLINK-36550          
1 67495U 26012C   26036.50002314 -.01966466  00000+0 -17596-1 0  9992
2 67495  42.9992 138.9372 0001151 288.2163 209.0640 15.70492886  3890
STARLINK-36534          
1 67496U 26012D   26036.50002314 -.01915951  00000+0 -15246-1 0  9996
2 67496  42.9992 138.8484 0001042 281.0394 251.8156 15.73683176  3838
STARLINK-36555          
1 67497U 26012E   26036.50002314 -.01915483  00000+0 -15300-1 0  9998
2 67497  42.9990 138.8613 0001121 286.1038 241.5546 15.73594971  3899
STARLINK-36081          
1 67498U 26012F   26036.50002314 -.01913404  00000+0 -17447-1 0  9994
2 67498  42.9992 138.9140 0001234 282.8454 223.4397 15.69961821  3832
STARLINK-36558          
1 67499U 26012G   26036.50002314 -.01958732  00000+0 -17898-1 0  9998
2 67499  42.9993 138.9073 0001153 287.8601 221.1177 15.69985346  3893
